start=new Date('2022-01-11T00:00:00.000Z').valueOf();
sats=[{"CLASSIFICATION_TYPE":"U","MEAN_MOTION":"15.06409291","CENTER_NAME":"EARTH","RA_OF_ASC_NODE":"307.7608","ARG_OF_PERICENTER":"60.9760","NORAD_CAT_ID":"44939","MEAN_ELEMENT_THEORY":"SGP4","TIME_SYSTEM":"UTC","SEMIMAJOR_AXIS":"6925.320","DECAY_DATE":null,"ECCENTRICITY":"0.00018580","REV_AT_EPOCH":"11110","EPHEMERIS_TYPE":"0","EPOCH":"2022-01-10T05:25:45.839136","COUNTRY_CODE":"US","APOAPSIS":"548.472","ELEMENT_SET_NO":"999","LAUNCH_DATE":"2020-01-07","PERIOD":"95.592","TLE_LINE2":"2 44939  53.0547 307.7608 0001858  60.9760 299.1415 15.06409291111108","MEAN_ANOMALY":"299.1415","GP_ID":"193593440","SITE":"AFETR","OBJECT_ID":"2020-001AB","INCLINATION":"53.0547","MEAN_MOTION_DOT":"0.00001472","PERIAPSIS":"545.898","FILE":"3268856","MEAN_MOTION_DDOT":"0.0000000000000","OBJECT_TYPE":"PAYLOAD","REF_FRAME":"TEME","OBJECT_NAME":"STARLINK-1083","BSTAR":"0.00011768000000","TLE_LINE1":"1 44939U 20001AB  22010.22622499  .00001472  00000-0  11768-3 0  9993","RCS_SIZE":"LARGE"},{"REF_FRAME":"TEME","OBJECT_TYPE":"PAYLOAD","MEAN_MOTION_DDOT":"0.0000000000000","FILE":"3268856","RCS_SIZE":"LARGE","TLE_LINE1":"1 44940U 20001AC  22010.23728288  .00000492  00000-0  51945-4 0  9992","BSTAR":"0.00005194500000","OBJECT_NAME":"STARLINK-1091","GP_ID":"193593685","SITE":"AFETR","PERIOD":"95.592","TLE_LINE2":"2 44940  53.0548 307.7042 0001922  57.9404 302.1771 15.06407355111105","MEAN_ANOMALY":"302.1771","PERIAPSIS":"545.860","MEAN_MOTION_DOT":"0.00000492","INCLINATION":"53.0548","OBJECT_ID":"2020-001AC","SEMIMAJOR_AXIS":"6925.326","DECAY_DATE":null,"REV_AT_EPOCH":"11110","ECCENTRICITY":"0.00019220","EPHEMERIS_TYPE":"0","TIME_SYSTEM":"UTC","NORAD_CAT_ID":"44940","MEAN_ELEMENT_THEORY":"SGP4","LAUNCH_DATE":"2020-01-07","COUNTRY_CODE":"US","APOAPSIS":"548.522","ELEMENT_SET_NO":"999","EPOCH":"2022-01-10T05:41:41.240832","CLASSIFICATION_TYPE":"U","ARG_OF_PERICENTER":"57.9404","RA_OF_ASC_NODE":"307.7042","MEAN_MOTION":"15.06407355","CENTER_NAME":"EARTH"},{"PERIOD":"95.592","TLE_LINE2":"2 44941  53.0553 306.4158 0002222  65.0063 295.1157 15.06407424111152","MEAN_ANOMALY":"295.1157","SITE":"AFETR","GP_ID":"193601071","OBJECT_ID":"2020-001AD","PERIAPSIS":"545.652","INCLINATION":"53.0553","MEAN_MOTION_DOT":"0.00003058","MEAN_MOTION_DDOT":"0.0000000000000","FILE":"3269026","REF_FRAME":"TEME","OBJECT_TYPE":"PAYLOAD","BSTAR":"0.00022407000000","TLE_LINE1":"1 44941U 20001AD  22010.52478703  .00003058  00000-0  22407-3 0  9990","OBJECT_NAME":"STARLINK-1094","RCS_SIZE":"LARGE","CLASSIFICATION_TYPE":"U","RA_OF_ASC_NODE":"306.4158","MEAN_MOTION":"15.06407424","CENTER_NAME":"EARTH","ARG_OF_PERICENTER":"65.0063","NORAD_CAT_ID":"44941","MEAN_ELEMENT_THEORY":"SGP4","ECCENTRICITY":"0.00022220","DECAY_DATE":null,"SEMIMAJOR_AXIS":"6925.326","REV_AT_EPOCH":"11115","EPHEMERIS_TYPE":"0","TIME_SYSTEM":"UTC","EPOCH":"2022-01-10T12:35:41.599392","LAUNCH_DATE":"2020-01-07","APOAPSIS":"548.730","COUNTRY_CODE":"US","ELEMENT_SET_NO":"999"},{"RA_OF_ASC_NODE":"306.4840","CENTER_NAME":"EARTH","MEAN_MOTION":"15.06409046","ARG_OF_PERICENTER":"62.1710","CLASSIFICATION_TYPE":"U","EPOCH":"2022-01-10T12:14:27.926880","LAUNCH_DATE":"2020-01-07","ELEMENT_SET_NO":"999","COUNTRY_CODE":"US","APOAPSIS":"548.583","MEAN_ELEMENT_THEORY":"SGP4","NORAD_CAT_ID":"44942","EPHEMERIS_TYPE":"0","SEMIMAJOR_AXIS":"6925.321","DECAY_DATE":null,"REV_AT_EPOCH":"11115","ECCENTRICITY":"0.00020170","TIME_SYSTEM":"UTC","OBJECT_ID":"2020-001AE","PERIAPSIS":"545.789","INCLINATION":"53.0547","MEAN_MOTION_DOT":"0.00001776","MEAN_ANOMALY":"297.9484","PERIOD":"95.592","TLE_LINE2":"2 44942  53.0547 306.4840 0002017  62.1710 297.9484 15.06409046111158","GP_ID":"193592182","SITE":"AFETR","BSTAR":"0.00013805000000","TLE_LINE1":"1 44942U 20001AE  22010.51004545  .00001776  00000-0  13805-3 0  9996","OBJECT_NAME":"STARLINK-1096","RCS_SIZE":"LARGE","MEAN_MOTION_DDOT":"0.0000000000000","FILE":"3268856","REF_FRAME":"TEME","OBJECT_TYPE":"PAYLOAD"},{"EPHEMERIS_TYPE":"0","DECAY_DATE":null,"ECCENTRICITY":"0.00019600","SEMIMAJOR_AXIS":"6925.313","REV_AT_EPOCH":"11115","TIME_SYSTEM":"UTC","NORAD_CAT_ID":"44943","MEAN_ELEMENT_THEORY":"SGP4","LAUNCH_DATE":"2020-01-07","ELEMENT_SET_NO":"999","APOAPSIS":"548.536","COUNTRY_CODE":"US","EPOCH":"2022-01-10T13:18:09.168192","CLASSIFICATION_TYPE":"U","ARG_OF_PERICENTER":"63.1016","RA_OF_ASC_NODE":"306.2883","CENTER_NAME":"EARTH","MEAN_MOTION":"15.06411445","REF_FRAME":"TEME","OBJECT_TYPE":"PAYLOAD","MEAN_MOTION_DDOT":"0.0000000000000","FILE":"3268856","RCS_SIZE":"LARGE","BSTAR":"0.00014464000000","TLE_LINE1":"1 44943U 20001AF  22010.55427278  .00001874  00000-0  14464-3 0  9994","OBJECT_NAME":"STARLINK-1100","GP_ID":"193592941","SITE":"AFETR","MEAN_ANOMALY":"297.0173","PERIOD":"95.591","TLE_LINE2":"2 44943  53.0552 306.2883 0001960  63.1016 297.0173 15.06411445111158","PERIAPSIS":"545.821","INCLINATION":"53.0552","MEAN_MOTION_DOT":"0.00001874","OBJECT_ID":"2020-001AF"},{"RCS_SIZE":"LARGE","BSTAR":"0.00007017000000","TLE_LINE1":"1 44944U 20001AG  22010.53584772  .00000764  00000-0  70170-4 0  9990","OBJECT_NAME":"STARLINK-1108","REF_FRAME":"TEME","OBJECT_TYPE":"PAYLOAD","MEAN_MOTION_DDOT":"0.0000000000000","FILE":"3269030","PERIAPSIS":"545.728","INCLINATION":"53.0544","MEAN_MOTION_DOT":"0.00000764","OBJECT_ID":"2020-001AG","GP_ID":"193601089","SITE":"AFETR","MEAN_ANOMALY":"303.4322","PERIOD":"95.592","TLE_LINE2":"2 44944  53.0544 306.3661 0002127  56.6871 303.4322 15.06403990111151","LAUNCH_DATE":"2020-01-07","ELEMENT_SET_NO":"999","APOAPSIS":"548.674","COUNTRY_CODE":"US","EPOCH":"2022-01-10T12:51:37.243008","EPHEMERIS_TYPE":"0","REV_AT_EPOCH":"11115","DECAY_DATE":null,"SEMIMAJOR_AXIS":"6925.336","ECCENTRICITY":"0.00021270","TIME_SYSTEM":"UTC","MEAN_ELEMENT_THEORY":"SGP4","NORAD_CAT_ID":"44944","ARG_OF_PERICENTER":"56.6871","RA_OF_ASC_NODE":"306.3661","CENTER_NAME":"EARTH","MEAN_MOTION":"15.06403990","CLASSIFICATION_TYPE":"U"},{"REF_FRAME":"TEME","OBJECT_TYPE":"PAYLOAD","MEAN_MOTION_DDOT":"0.0000000000000","FILE":"3268856","RCS_SIZE":"LARGE","BSTAR":"0.00005652500000","TLE_LINE1":"1 44945U 20001AH  22010.23359729  .00000560  00000-0  56525-4 0  9992","OBJECT_NAME":"STARLINK-1109","GP_ID":"193592439","SITE":"AFETR","PERIOD":"95.592","TLE_LINE2":"2 44945  53.0550 307.7188 0001967  60.1924 299.9260 15.06406749111108","MEAN_ANOMALY":"299.9260","PERIAPSIS":"545.831","INCLINATION":"53.0550","MEAN_MOTION_DOT":"0.00000560","OBJECT_ID":"2020-001AH","DECAY_DATE":null,"ECCENTRICITY":"0.00019670","SEMIMAJOR_AXIS":"6925.328","REV_AT_EPOCH":"11110","EPHEMERIS_TYPE":"0","TIME_SYSTEM":"UTC","NORAD_CAT_ID":"44945","MEAN_ELEMENT_THEORY":"SGP4","LAUNCH_DATE":"2020-01-07","COUNTRY_CODE":"US","APOAPSIS":"548.555","ELEMENT_SET_NO":"999","EPOCH":"2022-01-10T05:36:22.805856","CLASSIFICATION_TYPE":"U","ARG_OF_PERICENTER":"60.1924","RA_OF_ASC_NODE":"307.7188","MEAN_MOTION":"15.06406749","CENTER_NAME":"EARTH"},{"REV_AT_EPOCH":"11120","DECAY_DATE":null,"SEMIMAJOR_AXIS":"6916.351","ECCENTRICITY":"0.00026110","EPHEMERIS_TYPE":"0","TIME_SYSTEM":"UTC","NORAD_CAT_ID":"44946","MEAN_ELEMENT_THEORY":"SGP4","LAUNCH_DATE":"2020-01-07","APOAPSIS":"540.022","COUNTRY_CODE":"US","ELEMENT_SET_NO":"999","EPOCH":"2022-01-10T12:23:45.272544","CLASSIFICATION_TYPE":"U","ARG_OF_PERICENTER":"75.5303","RA_OF_ASC_NODE":"300.9435","MEAN_MOTION":"15.09340587","CENTER_NAME":"EARTH","REF_FRAME":"TEME","OBJECT_TYPE":"PAYLOAD","MEAN_MOTION_DDOT":"0.0000000000000","FILE":"3269030","RCS_SIZE":"LARGE","TLE_LINE1":"1 44946U 20001AJ  22010.51649621  .00006124  00000-0  39711-3 0  9996","BSTAR":"0.00039711000000","OBJECT_NAME":"STARLINK-1110","GP_ID":"193601597","SITE":"AFETR","PERIOD":"95.406","TLE_LINE2":"2 44946  53.0040 300.9435 0002611  75.5303 284.5976 15.09340587111206","MEAN_ANOMALY":"284.5976","PERIAPSIS":"536.410","MEAN_MOTION_DOT":"0.00006124","INCLINATION":"53.0040","OBJECT_ID":"2020-001AJ"},{"PERIAPSIS":"545.875","INCLINATION":"53.0537","MEAN_MOTION_DOT":"0.00003163","OBJECT_ID":"2020-001AK","SITE":"AFETR","GP_ID":"193593441","MEAN_ANOMALY":"293.9021","TLE_LINE2":"2 44947  53.0537 306.4253 0001878  66.2165 293.9021 15.06412232111157","PERIOD":"95.591","RCS_SIZE":"LARGE","TLE_LINE1":"1 44947U 20001AK  22010.52110044  .00003163  00000-0  23108-3 0  9993","BSTAR":"0.00023108000000","OBJECT_NAME":"STARLINK-1116","REF_FRAME":"TEME","OBJECT_TYPE":"PAYLOAD","MEAN_MOTION_DDOT":"0.0000000000000","FILE":"3268856","ARG_OF_PERICENTER":"66.2165","RA_OF_ASC_NODE":"306.4253","CENTER_NAME":"EARTH","MEAN_MOTION":"15.06412232","CLASSIFICATION_TYPE":"U","LAUNCH_DATE":"2020-01-07","ELEMENT_SET_NO":"999","APOAPSIS":"548.477","COUNTRY_CODE":"US","EPOCH":"2022-01-10T12:30:23.078016","EPHEMERIS_TYPE":"0","DECAY_DATE":null,"SEMIMAJOR_AXIS":"6925.311","ECCENTRICITY":"0.00018780","REV_AT_EPOCH":"11115","TIME_SYSTEM":"UTC","NORAD_CAT_ID":"44947","MEAN_ELEMENT_THEORY":"SGP4"},{"MEAN_MOTION_DDOT":"0.0000000000000","FILE":"3268856","REF_FRAME":"TEME","OBJECT_TYPE":"PAYLOAD","TLE_LINE1":"1 44949U 20001AM  22010.54690397  .00002408  00000-0  18049-3 0  9990","BSTAR":"0.00018049000000","OBJECT_NAME":"STARLINK-1122","RCS_SIZE":"LARGE","MEAN_ANOMALY":"294.0736","TLE_LINE2":"2 44949  53.0530 306.3267 0002065  66.0469 294.0736 15.06411037111157","PERIOD":"95.591","SITE":"AFETR","GP_ID":"193593686","OBJECT_ID":"2020-001AM","PERIAPSIS":"545.750","MEAN_MOTION_DOT":"0.00002408","INCLINATION":"53.0530","NORAD_CAT_ID":"44949","MEAN_ELEMENT_THEORY":"SGP4","EPHEMERIS_TYPE":"0","DECAY_DATE":null,"ECCENTRICITY":"0.00020650","SEMIMAJOR_AXIS":"6925.315","REV_AT_EPOCH":"11115","TIME_SYSTEM":"UTC","EPOCH":"2022-01-10T13:07:32.503008","LAUNCH_DATE":"2020-01-07","ELEMENT_SET_NO":"999","COUNTRY_CODE":"US","APOAPSIS":"548.610","CLASSIFICATION_TYPE":"U","RA_OF_ASC_NODE":"306.3267","CENTER_NAME":"EARTH","MEAN_MOTION":"15.06411037","ARG_OF_PERICENTER":"66.0469"}];
